{"type": "FeatureCollection", "features": [ {"type": "Feature", "properties": {"norad_id": 66855, "name": "STARLINK-36090", "group": "last-30-days", "lat": -42.922034290336086, "lon": 30.044194489652845, "alt_km": 307.1217859556464, "timestamp": "2025-12-13T16:48:31.467184+00:00", "meta": {"OBJECT_NAME": "STARLINK-36090", "OBJECT_ID": "2025-281H", "EPOCH": "2025-12-12T20:00:01.999872", "MEAN_MOTION": 15.90833336, "ECCENTRICITY": 0.0001723, "INCLINATION": 43.0012, "RA_OF_ASC_NODE": 121.771, "ARG_OF_PERICENTER": 279.0894, "MEAN_ANOMALY": 65.0312, "EPHEMERIS_TYPE": 0, "CLASSIFICATION_TYPE": "U", "NORAD_CAT_ID": 66855, "ELEMENT_SET_NO": 999, "REV_AT_EPOCH": 130, "BSTAR": -0.0034586814, "MEAN_MOTION_DOT": -0.01004809, "MEAN_MOTION_DDOT": 0}, "tle": {"line1": "1 66855U 25281H   25346.83335648 -.01004809  00000+0 -34587-2 0  9990", "line2": "2 66855  43.0012 121.7710 0001723 279.0894  65.0312 15.90833336  1305"}}, "geometry": {"type": "Point", "coordinates": [30.044194489652845, -42.922034290336086]}}, {"type": "Feature", "properties": {"norad_id": 66856, "name": "STARLINK-36072", "group": "last-30-days", "lat": -42.71880659184958, "lon": 34.11999100900368, "alt_km": 307.03582971643027, "timestamp": "2025-12-13T16:48:31.467196+00:00", "meta": {"OBJECT_NAME": "STARLINK-36072", "OBJECT_ID": "2025-281J", "EPOCH": "2025-12-12T20:00:01.999872", "MEAN_MOTION": 15.90877289, "ECCENTRICITY": 0.00016554, "INCLINATION": 43.001, "RA_OF_ASC_NODE": 121.7636, "ARG_OF_PERICENTER": 283.3435, "MEAN_ANOMALY": 63.6378, "EPHEMERIS_TYPE": 0, "CLASSIFICATION_TYPE": "U", "NORAD_CAT_ID": 66856, "ELEMENT_SET_NO": 999, "REV_AT_EPOCH": 141, "BSTAR": -0.0034399911, "MEAN_MOTION_DOT": -0.01001959, "MEAN_MOTION_DDOT": 0}, "tle": {"line1": "1 66856U 25281J   25346.83335648 -.01001959  00000+0 -34400-2 0  9998", "line2": "2 66856  43.0010 121.7636 0001655 283.3435  63.6378 15.90877289  1417"}}, "geometry": {"type": "Point", "coordinates": [34.11999100900368, -42.71880659184958]}}, {"type": "Feature", "properties": {"norad_id": 66857, "name": "STARLINK-36083", "group": "last-30-days", "lat": -42.44126731937018, "lon": 37.47077787567428, "alt_km": 306.8560002093818, "timestamp": "2025-12-13T16:48:31.467206+00:00", "meta": {"OBJECT_NAME": "STARLINK-36083", "OBJECT_ID": "2025-281K", "EPOCH": "2025-12-12T20:00:01.999872", "MEAN_MOTION": 15.90922646, "ECCENTRICITY": 0.00017538, "INCLINATION": 43.0008, "RA_OF_ASC_NODE": 121.7578, "ARG_OF_PERICENTER": 284.2287, "MEAN_ANOMALY": 65.1227, "EPHEMERIS_TYPE": 0, "CLASSIFICATION_TYPE": "U", "NORAD_CAT_ID": 66857, "ELEMENT_SET_NO": 999, "REV_AT_EPOCH": 141, "BSTAR": -0.003457557, "MEAN_MOTION_DOT": -0.01008723, "MEAN_MOTION_DDOT": 0}, "tle": {"line1": "1 66857U 25281K   25346.83335648 -.01008723  00000+0 -34576-2 0  9999", "line2": "2 66857  43.0008 121.7578 0001753 284.2287  65.1227 15.90922646  1412"}}, "geometry": {"type": "Point", "coordinates": [37.47077787567428, -42.44126731937018]}}, {"type": "Feature", "properties": {"norad_id": 66858, "name": "STARLINK-35118", "group": "last-30-days", "lat": -42.04930848192327, "lon": 40.92645659226999, "alt_km": 306.738555367926, "timestamp": "2025-12-13T16:48:31.467216+00:00", "meta": {"OBJECT_NAME": "STARLINK-35118", "OBJECT_ID": "2025-281L", "EPOCH": "2025-12-12T20:00:01.999872", "MEAN_MOTION": 15.90978536, "ECCENTRICITY": 0.00018119, "INCLINATION": 43.0012, "RA_OF_ASC_NODE": 121.7511, "ARG_OF_PERICENTER": 282.2743, "MEAN_ANOMALY": 69.5718, "EPHEMERIS_TYPE": 0, "CLASSIFICATION_TYPE": "U", "NORAD_CAT_ID": 66858, "ELEMENT_SET_NO": 999, "REV_AT_EPOCH": 130, "BSTAR": -0.0035372512, "MEAN_MOTION_DOT": -0.01032197, "MEAN_MOTION_DDOT": 0}, "tle": {"line1": "1 66858U 25281L   25346.83335648 -.01032197  00000+0 -35373-2 0  9998", "line2": "2 66858  43.0012 121.7511 0001811 282.2743  69.5718 15.90978536  1305"}}, "geometry": {"type": "Point", "coordinates": [40.92645659226999, -42.04930848192327]}}, {"type": "Feature", "properties": {"norad_id": 66859, "name": "STARLINK-35646", "group": "last-30-days", "lat": -41.49868046168247, "lon": 44.67543004246781, "alt_km": 306.67925917069897, "timestamp": "2025-12-13T16:48:31.467228+00:00", "meta": {"OBJECT_NAME": "STARLINK-35646", "OBJECT_ID": "2025-281M", "EPOCH": "2025-12-12T20:00:01.999872", "MEAN_MOTION": 15.91043522, "ECCENTRICITY": 0.00018941, "INCLINATION": 43.0011, "RA_OF_ASC_NODE": 121.7444, "ARG_OF_PERICENTER": 280.2527, "MEAN_ANOMALY": 74.3813, "EPHEMERIS_TYPE": 0, "CLASSIFICATION_TYPE": "U", "NORAD_CAT_ID": 66859, "ELEMENT_SET_NO": 999, "REV_AT_EPOCH": 141, "BSTAR": -0.0036873926, "MEAN_MOTION_DOT": -0.01074394, "MEAN_MOTION_DDOT": 0}, "tle": {"line1": "1 66859U 25281M   25346.83335648 -.01074394  00000+0 -36874-2 0  9991", "line2": "2 66859  43.0011 121.7444 0001894 280.2527  74.3813 15.91043522  1410"}}, "geometry": {"type": "Point", "coordinates": [44.67543004246781, -41.49868046168247]}}, {"type": "Feature", "properties": {"norad_id": 66860, "name": "STARLINK-35987", "group": "last-30-days", "lat": -36.89629468178123, "lon": 62.65901898626462, "alt_km": 306.7168936229018, "timestamp": "2025-12-13T16:48:31.467240+00:00", "meta": {"OBJECT_NAME": "STARLINK-35987", "OBJECT_ID": "2025-281N", "EPOCH": "2025-12-12T20:00:01.999872", "MEAN_MOTION": 15.91251416, "ECCENTRICITY": 0.00017528, "INCLINATION": 43.0011, "RA_OF_ASC_NODE": 121.7076, "ARG_OF_PERICENTER": 279.8025, "MEAN_ANOMALY": 89.2992, "EPHEMERIS_TYPE": 0, "CLASSIFICATION_TYPE": "U", "NORAD_CAT_ID": 66860, "ELEMENT_SET_NO": 999, "REV_AT_EPOCH": 142, "BSTAR": -0.0041647193, "MEAN_MOTION_DOT": -0.0137512, "MEAN_MOTION_DDOT": 0.00053718174}, "tle": {"line1": "1 66860U 25281N   25346.83335648 -.01375120  53718-3 -41647-2 0  9996", "line2": "2 66860  43.0011 121.7076 0001752 279.8025  89.2992 15.91251416  1420"}}, "geometry": {"type": "Point", "coordinates": [62.65901898626462, -36.89629468178123]}}, {"type": "Feature", "properties": {"norad_id": 66861, "name": "STARLINK-35991", "group": "last-30-days", "lat": -40.02429557752266, "lon": 52.0316456816495, "alt_km": 306.9199823283752, "timestamp": "2025-12-13T16:48:31.467251+00:00", "meta": {"OBJECT_NAME": "STARLINK-35991", "OBJECT_ID": "2025-281P", "EPOCH": "2025-12-12T20:00:01.999872", "MEAN_MOTION": 15.91165179, "ECCENTRICITY": 0.00017094, "INCLINATION": 43.0013, "RA_OF_ASC_NODE": 121.7298, "ARG_OF_PERICENTER": 280.5299, "MEAN_ANOMALY": 79.8192, "EPHEMERIS_TYPE": 0, "CLASSIFICATION_TYPE": "U", "NORAD_CAT_ID": 66861, "ELEMENT_SET_NO": 999, "REV_AT_EPOCH": 142, "BSTAR": -0.0040449549, "MEAN_MOTION_DOT": -0.01330132, "MEAN_MOTION_DDOT": 0.00050501595}, "tle": {"line1": "1 66861U 25281P   25346.83335648 -.01330132  50502-3 -40450-2 0  9990", "line2": "2 66861  43.0013 121.7298 0001709 280.5299  79.8192 15.91165179  1420"}}, "geometry": {"type": "Point", "coordinates": [52.0316456816495, -40.02429557752266]}}, {"type": "Feature", "properties": {"norad_id": 66862, "name": "STARLINK-35974", "group": "last-30-days", "lat": -40.78333908322158, "lon": 48.57682880107129, "alt_km": 306.7863484285608, "timestamp": "2025-12-13T16:48:31.467261+00:00", "meta": {"OBJECT_NAME": "STARLINK-35974", "OBJECT_ID": "2025-281Q", "EPOCH": "2025-12-12T20:00:01.999872", "MEAN_MOTION": 15.91115992, "ECCENTRICITY": 0.0001885, "INCLINATION": 43.0011, "RA_OF_ASC_NODE": 121.7369, "ARG_OF_PERICENTER": 278.5307, "MEAN_ANOMALY": 79.1148, "EPHEMERIS_TYPE": 0, "CLASSIFICATION_TYPE": "U", "NORAD_CAT_ID": 66862, "ELEMENT_SET_NO": 999, "REV_AT_EPOCH": 131, "BSTAR": -0.0039222815, "MEAN_MOTION_DOT": -0.01287026, "MEAN_MOTION_DDOT": 0.0004752353}, "tle": {"line1": "1 66862U 25281Q   25346.83335648 -.01287026  47524-3 -39223-2 0  9990", "line2": "2 66862  43.0011 121.7369 0001885 278.5307  79.1148 15.91115992  1310"}}, "geometry": {"type": "Point", "coordinates": [48.57682880107129, -40.78333908322158]}}, {"type": "Feature", "properties": {"norad_id": 66863, "name": "STARLINK-36134", "group": "last-30-days", "lat": -38.898756300313686, "lon": 56.36260847778924, "alt_km": 306.98538725748585, "timestamp": "2025-12-13T16:48:31.467271+00:00", "meta": {"OBJECT_NAME": "STARLINK-36134", "OBJECT_ID": "2025-281R", "EPOCH": "2025-12-12T20:00:01.999872", "MEAN_MOTION": 15.91200386, "ECCENTRICITY": 0.00016438, "INCLINATION": 43.0015, "RA_OF_ASC_NODE": 121.721, "ARG_OF_PERICENTER": 283.7399, "MEAN_ANOMALY": 80.1413, "EPHEMERIS_TYPE": 0, "CLASSIFICATION_TYPE": "U", "NORAD_CAT_ID": 66863, "ELEMENT_SET_NO": 999, "REV_AT_EPOCH": 142, "BSTAR": -0.0041612285, "MEAN_MOTION_DOT": -0.01370384, "MEAN_MOTION_DDOT": 0.00053353653}, "tle": {"line1": "1 66863U 25281R   25346.83335648 -.01370384  53354-3 -41612-2 0  9994", "line2": "2 66863  43.0015 121.7210 0001643 283.7399  80.1413 15.91200386  1422"}}, "geometry": {"type": "Point", "coordinates": [56.36260847778924, -38.898756300313686]}}, {"type": "Feature", "properties": {"norad_id": 66864, "name": "STARLINK-36070", "group": "last-30-days", "lat": -37.96779597751306, "lon": 59.46558460048549, "alt_km": 306.81148311336983, "timestamp": "2025-12-13T16:48:31.467280+00:00", "meta": {"OBJECT_NAME": "STARLINK-36070", "OBJECT_ID": "2025-281S", "EPOCH": "2025-12-12T20:00:01.999872", "MEAN_MOTION": 15.91223318, "ECCENTRICITY": 0.00017071, "INCLINATION": 43.0015, "RA_OF_ASC_NODE": 121.7143, "ARG_OF_PERICENTER": 281.2908, "MEAN_ANOMALY": 85.1095, "EPHEMERIS_TYPE": 0, "CLASSIFICATION_TYPE": "U", "NORAD_CAT_ID": 66864, "ELEMENT_SET_NO": 999, "REV_AT_EPOCH": 145, "BSTAR": -0.0041346008, "MEAN_MOTION_DOT": -0.0136332, "MEAN_MOTION_DDOT": 0.00052862505}, "tle": {"line1": "1 66864U 25281S   25346.83335648 -.01363320  52863-3 -41346-2 0  9995", "line2": "2 66864  43.0015 121.7143 0001707 281.2908  85.1095 15.91223318  1452"}}, "geometry": {"type": "Point", "coordinates": [59.46558460048549, -37.96779597751306]}}]}